NORAD_CAT_ID,OBJECT_NAME,OBJECT_TYPE,EPOCH,MEAN_MOTION,ECCENTRICITY,INCLINATION,RA_OF_ASC_NODE,ARG_OF_PERICENTER,MEAN_ANOMALY,BSTAR,MEAN_MOTION_DOT,MEAN_MOTION_DDOT,TLE_LINE0,TLE_LINE1,TLE_LINE2,SEMIMAJOR_AXIS,PERIOD,APOGEE,PERIGEE,DECAYED
55286.0,STARLINK-5338,PAYLOAD,2023-10-22 13:57:27,14.98314072,0.0003057,70.0007,55.8526,273.6466,86.4343,-4.5168e-05,-6.32e-06,0.0,0 STARLINK-5338,1 55286U 23010T   23295.58156745 -.00000632  00000-0 -45168-4 0  9995,2 55286  70.0007  55.8526 0003057 273.6466  86.4343 14.98314072 43084,6950.242,96.108,574.232,569.982,0.0
55286.0,STARLINK-5338,PAYLOAD,2023-10-22 17:09:43,14.98308896,0.0002232,70.0015,55.5187,257.6579,102.4331,7.9804e-05,8.59e-06,0.0,0 STARLINK-5338,1 55286U 23010T   23295.71508946  .00000859  00000-0  79804-4 0  9997,2 55286  70.0015  55.5187 0002232 257.6579 102.4331 14.98308896 43100,6950.258,96.108,573.674,570.572,0.0
55286.0,STARLINK-5338,PAYLOAD,2023-10-23 01:10:23,14.98326487,0.0002918,70.0015,54.674,275.9292,84.1535,-2.8368e-05,-4.31e-06,0.0,0 STARLINK-5338,1 55286U 23010T   23296.04888256 -.00000431  00000-0 -28368-4 0  9996,2 55286  70.0015  54.6740 0002918 275.9292  84.1535 14.98326487 42849,6950.204,96.107,574.097,570.041,0.0
55286.0,STARLINK-5338,PAYLOAD,2023-10-23 12:23:19,14.9833069,0.0003031,70.0006,53.4951,271.526,88.5552,-2.3719e-05,-3.76e-06,0.0,0 STARLINK-5338,1 55286U 23010T   23296.51619935 -.00000376  00000-0 -23719-4 0  9997,2 55286  70.0006  53.4951 0003031 271.5260  88.5552 14.98330690 43225,6950.191,96.107,574.162,569.949,0.0
55286.0,STARLINK-5338,PAYLOAD,2023-10-24 01:12:23,14.98339378,0.0003316,70.0007,52.1492,275.4524,84.6257,-4.4694e-05,-6.26e-06,0.0,0 STARLINK-5338,1 55286U 23010T   23297.05027259 -.00000626  00000-0 -44694-4 0  9992,2 55286  70.0007  52.1492 0003316 275.4524  84.6257 14.98339378 42998,6950.164,96.106,574.334,569.724,0.0
55286.0,STARLINK-5338,PAYLOAD,2023-10-24 12:25:20,14.98320832,0.0002939,70.0011,50.9722,272.2315,87.8508,6.2285e-05,6.5e-06,0.0,0 STARLINK-5338,1 55286U 23010T   23297.51760364  .00000650  00000-0  62285-4 0  9995,2 55286  70.0011  50.9722 0002939 272.2315  87.8508 14.98320832 43066,6950.221,96.108,574.129,570.044,0.0
55286.0,STARLINK-5338,PAYLOAD,2023-10-24 14:01:28,14.98323185,0.0002907,70.0016,50.805,266.7758,93.3069,7.7887e-05,8.36e-06,0.0,0 STARLINK-5338,1 55286U 23010T   23297.58436162  .00000836  00000-0  77887-4 0  9998,2 55286  70.0016  50.8050 0002907 266.7758  93.3069 14.98323185 43381,6950.214,96.107,574.099,570.059,0.0
55286.0,STARLINK-5338,PAYLOAD,2023-10-25 14:03:29,14.98337305,0.0003057,70.001,48.2792,269.0813,90.9996,1.5064e-05,8.7e-07,0.0,0 STARLINK-5338,1 55286U 23010T   23298.58575397  .00000087  00000-0  15064-4 0  9990,2 55286  70.0010  48.2792 0003057 269.0813  90.9996 14.98337305 43228,6950.17,96.107,574.16,569.911,0.0
55286.0,STARLINK-5338,PAYLOAD,2023-10-26 01:16:26,14.98329908,0.0002366,70.0033,47.1021,277.6728,82.4162,-3.9313e-05,-5.62e-06,0.0,0 STARLINK-5338,1 55286U 23010T   23299.05308100 -.00000562  00000-0 -39313-4 0  9992,2 55286  70.0033  47.1021 0002366 277.6728  82.4162 14.98329908 43296,6950.193,96.107,573.703,570.414,0.0
55286.0,STARLINK-5338,PAYLOAD,2023-10-26 14:05:30,14.98327512,0.00031,70.0012,45.7542,268.9321,91.1483,-2.577e-06,-1.24e-06,0.0,0 STARLINK-5338,1 55286U 23010T   23299.58715938 -.00000124  00000-0 -25770-5 0  9998,2 55286  70.0012  45.7542 0003100 268.9321  91.1483 14.98327512 43689,6950.201,96.107,574.22,569.911,0.0
55286.0,STARLINK-5338,PAYLOAD,2023-10-26 17:17:46,14.98331339,0.0003093,70.0013,45.4176,268.8894,91.191,3.6718e-05,3.45e-06,0.0,0 STARLINK-5338,1 55286U 23010T   23299.72067575  .00000345  00000-0  36718-4 0  9997,2 55286  70.0013  45.4176 0003093 268.8894  91.1910 14.98331339 43705,6950.189,96.107,574.203,569.904,0.0
55286.0,STARLINK-5338,PAYLOAD,2023-10-27 14:07:29,14.98376081,0.0002697,70.0018,43.2307,260.6467,99.4387,-0.00047556,-5.769e-05,0.0,0 STARLINK-5338,1 55286U 23010T   23300.58853726 -.00005769  00000-0 -47556-3 0  9993,2 55286  70.0018  43.2307 0002697 260.6467  99.4387 14.98376081 43529,6950.05,96.104,573.79,570.041,0.0
55286.0,STARLINK-5338,PAYLOAD,2023-10-27 17:19:45,14.98372919,0.0002605,70.0019,42.8932,263.5193,96.5669,-0.00037889,-4.616e-05,0.0,0 STARLINK-5338,1 55286U 23010T   23300.72205397 -.00004616  00000-0 -37889-3 0  9992,2 55286  70.0019  42.8932 0002605 263.5193  96.5669 14.98372919 43859,6950.06,96.104,573.736,570.115,0.0
55286.0,STARLINK-5338,PAYLOAD,2023-10-27 23:44:19,14.98336428,0.000285,70.0021,42.2176,279.7895,80.2943,-6.6204e-05,-8.83e-06,0.0,0 STARLINK-5338,1 55286U 23010T   23300.98910951 -.00000883  00000-0 -66204-4 0  9995,2 55286  70.0021  42.2176 0002850 279.7895  80.2943 14.98336428 43586,6950.173,96.107,574.019,570.057,0.0
55286.0,STARLINK-5338,PAYLOAD,2023-10-28 12:33:24,14.98326019,0.0002754,70.001,40.8736,274.43,85.6544,-0.00017466,-2.176e-05,0.0,0 STARLINK-5338,1 55286U 23010T   23301.52320004 -.00002176  00000-0 -17466-3 0  9992,2 55286  70.0010  40.8736 0002754 274.4300  85.6544 14.98326019 43666,6950.205,96.107,573.984,570.156,0.0
55286.0,STARLINK-5338,PAYLOAD,2023-10-28 14:09:32,14.98315564,0.0002332,70.0016,40.7061,267.9854,92.1038,8.4818e-06,8e-08,0.0,0 STARLINK-5338,1 55286U 23010T   23301.58996251  .00000008  00000-0  84818-5 0  9998,2 55286  70.0016  40.7061 0002332 267.9854  92.1038 14.98315564 43984,6950.238,96.108,573.723,570.482,0.0
55286.0,STARLINK-5338,PAYLOAD,2023-10-28 15:45:40,14.9831465,0.000225,70.0015,40.538,268.9184,91.1717,3.8691e-05,3.69e-06,0.0,0 STARLINK-5338,1 55286U 23010T   23301.65672291  .00000369  00000-0  38691-4 0  9998,2 55286  70.0015  40.5380 0002250 268.9184  91.1717 14.98314650 43990,6950.24,96.108,573.669,570.542,0.0
55286.0,STARLINK-5338,PAYLOAD,2023-10-28 23:46:20,14.98332201,0.0002909,70.0013,39.6953,272.5881,87.4945,-4.6288e-05,-6.45e-06,0.0,0 STARLINK-5338,1 55286U 23010T   23301.99051319 -.00000645  00000-0 -46288-4 0  9997,2 55286  70.0013  39.6953 0002909 272.5881  87.4945 14.98332201 43734,6950.186,96.107,574.073,570.029,0.0
55286.0,STARLINK-5338,PAYLOAD,2023-10-29 12:35:23,14.98349227,0.0003041,70.0005,38.3471,272.9767,87.1044,5.4094e-05,5.53e-06,0.0,0 STARLINK-5338,1 55286U 23010T   23302.52457684  .00000553  00000-0  54094-4 0  9992,2 55286  70.0005  38.3471 0003041 272.9767  87.1044 14.98349227 43813,6950.133,96.106,574.112,569.885,0.0
55286.0,STARLINK-5338,PAYLOAD,2023-10-29 14:11:31,14.98344716,0.0002973,70.0005,38.1785,267.9233,92.1585,1.4069e-05,7.5e-07,0.0,0 STARLINK-5338,1 55286U 23010T   23302.59133976  .00000075  00000-0  14069-4 0  9991,2 55286  70.0005  38.1785 0002973 267.9233  92.1585 14.98344716 44134,6950.147,96.106,574.079,569.946,0.0
55286.0,STARLINK-5338,PAYLOAD,2023-10-29 15:47:39,14.98349207,0.0002971,70.0006,38.0104,268.8611,91.2208,6.4356e-05,6.75e-06,0.0,0 STARLINK-5338,1 55286U 23010T   23302.65809505  .00000675  00000-0  64356-4 0  9996,2 55286  70.0006  38.0104 0002971 268.8611  91.2208 14.98349207 44140,6950.133,96.106,574.063,569.934,0.0
55286.0,STARLINK-5338,PAYLOAD,2023-10-30 11:01:18,14.98310257,0.0002947,70.0009,35.9927,268.6309,91.4513,-8.1637e-05,-1.066e-05,0.0,0 STARLINK-5338,1 55286U 23010T   23303.45924310 -.00001066  00000-0 -81637-4 0  9995,2 55286  70.0009  35.9927 0002947 268.6309  91.4513 14.98310257 43959,6950.254,96.108,574.167,570.071,0.0
55286.0,STARLINK-5338,PAYLOAD,2023-10-30 12:37:26,14.98317533,0.0003088,70.0,35.8229,273.2005,86.8801,-3.4191e-05,-5.01e-06,0.0,0 STARLINK-5338,1 55286U 23010T   23303.52599797 -.00000501  00000-0 -34191-4 0  9996,2 55286  70.0000  35.8229 0003088 273.2005  86.8801 14.98317533 43969,6950.231,96.108,574.243,569.95,0.0
55286.0,STARLINK-5338,PAYLOAD,2023-10-31 12:39:26,14.98335083,0.0002951,70.0001,33.298,268.557,91.5251,-3.9173e-05,-5.6e-06,0.0,0 STARLINK-5338,1 55286U 23010T   23304.52739134 -.00000560  00000-0 -39173-4 0  9998,2 55286  70.0001  33.2980 0002951 268.5570  91.5251 14.98335083 44118,6950.177,96.107,574.093,569.991,0.0
55286.0,STARLINK-5338,PAYLOAD,2023-10-31 14:15:35,14.98330818,0.0003083,69.9998,33.1299,270.9591,89.1215,-0.00010473,-1.342e-05,0.0,0 STARLINK-5338,1 55286U 23010T   23304.59415580 -.00001342  00000-0 -10473-3 0  9991,2 55286  69.9998  33.1299 0003083 270.9591  89.1215 14.98330818 44438,6950.19,96.107,574.198,569.913,0.0
55286.0,STARLINK-5338,PAYLOAD,2023-10-31 15:51:43,14.98331283,0.0003042,69.9999,32.9618,270.7793,89.3018,-7.3848e-05,-9.74e-06,0.0,0 STARLINK-5338,1 55286U 23010T   23304.66091478 -.00000974  00000-0 -73848-4 0  9991,2 55286  69.9999  32.9618 0003042 270.7793  89.3018 14.98331283 44449,6950.189,96.107,574.168,569.94,0.0
55286.0,STARLINK-5338,PAYLOAD,2023-10-31 23:52:23,14.983092,0.000299,70.0001,32.1198,279.0288,81.0533,0.00034924,4.074e-05,0.0,0 STARLINK-5338,1 55286U 23010T   23304.99472032  .00004074  00000-0  34924-3 0  9990,2 55286  70.0001  32.1198 0002990 279.0288  81.0533 14.98309200 44189,6950.257,96.108,574.2,570.044,0.0
55286.0,STARLINK-5338,PAYLOAD,2023-11-01 12:41:26,14.98337172,0.0003208,69.9998,30.7733,271.8647,88.2145,0.00023948,2.766e-05,0.0,0 STARLINK-5338,1 55286U 23010T   23305.52878325  .00002766  00000-0  23948-3 0  9995,2 55286  69.9998  30.7733 0003208 271.8647  88.2145 14.98337172 44268,6950.171,96.107,574.265,569.806,0.0
55286.0,STARLINK-5338,PAYLOAD,2023-11-01 14:17:35,14.98331239,0.0003123,69.9998,30.6052,271.8625,88.2176,0.00016784,1.91e-05,0.0,0 STARLINK-5338,1 55286U 23010T   23305.59554859  .00001910  00000-0  16784-3 0  9995,2 55286  69.9998  30.6052 0003123 271.8625  88.2176 14.98331239 44580,6950.189,96.107,574.225,569.884,0.0
55286.0,STARLINK-5338,PAYLOAD,2023-11-01 15:53:43,14.98332514,0.0003086,70.0,30.4369,271.6815,88.399,0.00018416,2.105e-05,0.0,0 STARLINK-5338,1 55286U 23010T   23305.66230741  .00002105  00000-0  18416-3 0  9995,2 55286  70.0000  30.4369 0003086 271.6815  88.3990 14.98332514 44596,6950.185,96.107,574.195,569.905,0.0
